[
    {
        "Altitude(m)": 617719.7476421172,
        "Argument of Periapsis(deg)": 0.0,
        "Eccentricity": 0.0,
        "Inclination(deg)": 60.0,
        "Latitude(deg)": -41.10257702525707,
        "Longitude(deg)": 20.094721131966473,
        "Mean Anomaly(deg)": -130.90909999999997,
        "RAAN(deg)": 270.0,
        "Satellite Name": "Test1 1202",
        "Satellite Number": 1202,
        "Semi-Major Axis(m)": 6980739.136638005,
        "Time(s)": 0
    },
    {
        "Altitude(m)": 617911.283220179,
        "Argument of Periapsis(deg)": 0.00010418945913296404,
        "Eccentricity": 0.0,
        "Inclination(deg)": 60.0,
        "Latitude(deg)": -41.56576825665121,
        "Longitude(deg)": 20.599128406485768,
        "Mean Anomaly(deg)": -130.2889938545382,
        "RAAN(deg)": 269.99957995086027,
        "Satellite Name": "Test1 1202",
        "Satellite Number": 1202,
        "Semi-Major Axis(m)": 6980739.136638005,
        "Time(s)": 10
    },
    {
        "Altitude(m)": 618101.69357457,
        "Argument of Periapsis(deg)": 0.0002083789182659281,
        "Eccentricity": 0.0,
        "Inclination(deg)": 60.0,
        "Latitude(deg)": -42.026280977276656,
        "Longitude(deg)": 21.111343045235056,
        "Mean Anomaly(deg)": -129.66888770907636,
        "RAAN(deg)": 269.9991599017205,
        "Satellite Name": "Test1 1202",
        "Satellite Number": 1202,
        "Semi-Major Axis(m)": 6980739.136638005,
        "Time(s)": 20
    },
    {
        "Altitude(m)": 618290.9056781085,
        "Argument of Periapsis(deg)": 0.00031256837739889213,
        "Eccentricity": 0.0,
        "Inclination(deg)": 60.0,
        "Latitude(deg)": -42.484034940375686,
        "Longitude(deg)": 21.631559732201055,
        "Mean Anomaly(deg)": -129.04878156361454,
        "RAAN(deg)": 269.9987398525808,
        "Satellite Name": "Test1 1202",
        "Satellite Number": 1202,
        "Semi-Major Axis(m)": 6980739.136638005,
        "Time(s)": 30
    },
    {
        "Altitude(m)": 618478.8468808276,
        "Argument of Periapsis(deg)": 0.0004167578365318562,
        "Eccentricity": 0.0,
        "Inclination(deg)": 60.0,
        "Latitude(deg)": -42.938947374147155,
        "Longitude(deg)": 22.159976944966115,
        "Mean Anomaly(deg)": -128.4286754181527,
        "RAAN(deg)": 269.99831980344106,
        "Satellite Name": "Test1 1202",
        "Satellite Number": 1202,
        "Semi-Major Axis(m)": 6980739.136638005,
        "Time(s)": 40
    },
    {
        "Altitude(m)": 618665.4449416297,
        "Argument of Periapsis(deg)": 0.0005209472956648203,
        "Eccentricity": 0.0,
        "Inclination(deg)": 60.0,
        "Latitude(deg)": -43.39093290363642,
        "Longitude(deg)": 22.696795856789343,
        "Mean Anomaly(deg)": -127.80856927269083,
        "RAAN(deg)": 269.9978997543013,
        "Satellite Name": "Test1 1202",
        "Satellite Number": 1202,
        "Semi-Major Axis(m)": 6980739.136638005,
        "Time(s)": 50
    },
    {
        "Altitude(m)": 618850.628059723,
        "Argument of Periapsis(deg)": 0.0006251367547977843,
        "Eccentricity": 0.0,
        "Inclination(deg)": 60.0,
        "Latitude(deg)": -43.83990347198198,
        "Longitude(deg)": 23.242220731808928,
        "Mean Anomaly(deg)": -127.18846312722899,
        "RAAN(deg)": 269.99747970516154,
        "Satellite Name": "Test1 1202",
        "Satellite Number": 1202,
        "Semi-Major Axis(m)": 6980739.136638005,
        "Time(s)": 60
    },
    {
        "Altitude(m)": 619034.3249058827,
        "Argument of Periapsis(deg)": 0.0007293262139307483,
        "Eccentricity": 0.0,
        "Inclination(deg)": 60.0,
        "Latitude(deg)": -44.28576826125304,
        "Longitude(deg)": 23.7964592986274,
        "Mean Anomaly(deg)": -126.56835698176718,
        "RAAN(deg)": 269.9970596560218,
        "Satellite Name": "Test1 1202",
        "Satellite Number": 1202,
        "Semi-Major Axis(m)": 6980739.136638005,
        "Time(s)": 70
    },
    {
        "Altitude(m)": 619216.4646534292,
        "Argument of Periapsis(deg)": 0.0008335156730637124,
        "Eccentricity": 0.0,
        "Inclination(deg)": 60.0,
        "Latitude(deg)": -44.728433613147416,
        "Longitude(deg)": 24.359721587420065,
        "Mean Anomaly(deg)": -125.94825083630533,
        "RAAN(deg)": 269.99663960688207,
        "Satellite Name": "Test1 1202",
        "Satellite Number": 1202,
        "Semi-Major Axis(m)": 6980739.136638005,
        "Time(s)": 80
    },
    {
        "Altitude(m)": 619396.9770090239,
        "Argument of Periapsis(deg)": 0.0009377051321966765,
        "Eccentricity": 0.0,
        "Inclination(deg)": 60.0,
        "Latitude(deg)": -45.167802949846234,
        "Longitude(deg)": 24.932220254207063,
        "Mean Anomaly(deg)": -125.32814469084347,
        "RAAN(deg)": 269.99621955774234,
        "Satellite Name": "Test1 1202",
        "Satellite Number": 1202,
        "Semi-Major Axis(m)": 6980739.136638005,
        "Time(s)": 90
    },
    {
        "Altitude(m)": 619575.7922431456,
        "Argument of Periapsis(deg)": 0.0010418945913296407,
        "Eccentricity": 0.0,
        "Inclination(deg)": 60.0,
        "Latitude(deg)": -45.60377669537089,
        "Longitude(deg)": 25.51417087719093,
        "Mean Anomaly(deg)": -124.70803854538163,
        "RAAN(deg)": 269.99579950860254,
        "Satellite Name": "Test1 1202",
        "Satellite Number": 1202,
        "Semi-Major Axis(m)": 6980739.136638005,
        "Time(s)": 100
    },
    {
        "Altitude(m)": 619752.8412203394,
        "Argument of Periapsis(deg)": 0.0011460840504626045,
        "Eccentricity": 0.0,
        "Inclination(deg)": 60.0,
        "Latitude(deg)": -46.03625219782924,
        "Longitude(deg)": 26.10579070994399,
        "Mean Anomaly(deg)": -124.08793239991982,
        "RAAN(deg)": 269.99537945946287,
        "Satellite Name": "Test1 1202",
        "Satellite Number": 1202,
        "Semi-Major Axis(m)": 6980739.136638005,
        "Time(s)": 110
    },
    {
        "Altitude(m)": 619928.0554291761,
        "Argument of Periapsis(deg)": 0.0012502735095955685,
        "Eccentricity": 0.0,
        "Inclination(deg)": 60.0,
        "Latitude(deg)": -46.46512365297813,
        "Longitude(deg)": 26.707298914734945,
        "Mean Anomaly(deg)": -123.46782625445798,
        "RAAN(deg)": 269.99495941032313,
        "Satellite Name": "Test1 1202",
        "Satellite Number": 1202,
        "Semi-Major Axis(m)": 6980739.136638005,
        "Time(s)": 120
    },
    {
        "Altitude(m)": 620101.3670118955,
        "Argument of Periapsis(deg)": 0.0013544629687285324,
        "Eccentricity": 0.0,
        "Inclination(deg)": 60.0,
        "Latitude(deg)": -46.89028202958559,
        "Longitude(deg)": 27.3189167605574,
        "Mean Anomaly(deg)": -122.84772010899611,
        "RAAN(deg)": 269.99453936118334,
        "Satellite Name": "Test1 1202",
        "Satellite Number": 1202,
        "Semi-Major Axis(m)": 6980739.136638005,
        "Time(s)": 130
    },
    {
        "Altitude(m)": 620272.708793779,
        "Argument of Periapsis(deg)": 0.0014586524278614966,
        "Eccentricity": 0.0,
        "Inclination(deg)": 60.0,
        "Latitude(deg)": -47.311614997130405,
        "Longitude(deg)": 27.94086627032523,
        "Mean Anomaly(deg)": -122.22761396353437,
        "RAAN(deg)": 269.9941193120436,
        "Satellite Name": "Test1 1202",
        "Satellite Number": 1202,
        "Semi-Major Axis(m)": 6980739.136638005,
        "Time(s)": 140
    },
    {
        "Altitude(m)": 620442.0143121625,
        "Argument of Periapsis(deg)": 0.0015628418869944607,
        "Eccentricity": 0.0,
        "Inclination(deg)": 60.0,
        "Latitude(deg)": -47.72900685642736,
        "Longitude(deg)": 28.573370340231012,
        "Mean Anomaly(deg)": -121.60750781807246,
        "RAAN(deg)": 269.9936992629039,
        "Satellite Name": "Test1 1202",
        "Satellite Number": 1202,
        "Semi-Major Axis(m)": 6980739.136638005,
        "Time(s)": 150
    },
    {
        "Altitude(m)": 620609.2178451605,
        "Argument of Periapsis(deg)": 0.0016670313461274247,
        "Eccentricity": 0.0,
        "Inclination(deg)": 60.0,
        "Latitude(deg)": -48.14233847383043,
        "Longitude(deg)": 29.216652815568068,
        "Mean Anomaly(deg)": -120.98740167261072,
        "RAAN(deg)": 269.99327921376414,
        "Satellite Name": "Test1 1202",
        "Satellite Number": 1202,
        "Semi-Major Axis(m)": 6980739.136638005,
        "Time(s)": 160
    },
    {
        "Altitude(m)": 620774.2544399956,
        "Argument of Periapsis(deg)": 0.0017712208052603888,
        "Eccentricity": 0.0,
        "Inclination(deg)": 60.0,
        "Latitude(deg)": -48.551487219737176,
        "Longitude(deg)": 29.87093700727764,
        "Mean Anomaly(deg)": -120.36729552714885,
        "RAAN(deg)": 269.9928591646244,
        "Satellite Name": "Test1 1202",
        "Satellite Number": 1202,
        "Semi-Major Axis(m)": 6980739.136638005,
        "Time(s)": 170
    },
    {
        "Altitude(m)": 620937.0599410323,
        "Argument of Periapsis(deg)": 0.001875410264393353,
        "Eccentricity": 0.0,
        "Inclination(deg)": 60.0,
        "Latitude(deg)": -48.956326912169395,
        "Longitude(deg)": 30.536445672051748,
        "Mean Anomaly(deg)": -119.74718938168711,
        "RAAN(deg)": 269.9924391154846,
        "Satellite Name": "Test1 1202",
        "Satellite Number": 1202,
        "Semi-Major Axis(m)": 6980739.136638005,
        "Time(s)": 180
    },
    {
        "Altitude(m)": 621097.5710173968,
        "Argument of Periapsis(deg)": 0.0019795997235263173,
        "Eccentricity": 0.0,
        "Inclination(deg)": 60.0,
        "Latitude(deg)": -49.356727766290064,
        "Longitude(deg)": 31.21340094022405,
        "Mean Anomaly(deg)": -119.1270832362252,
        "RAAN(deg)": 269.99201906634494,
        "Satellite Name": "Test1 1202",
        "Satellite Number": 1202,
        "Semi-Major Axis(m)": 6980739.136638005,
        "Time(s)": 190
    }
]